OBJECT_NAME,OBJECT_ID,EPOCH,MEAN_MOTION,ECCENTRICITY,INCLINATION,RA_OF_ASC_NODE,ARG_OF_PERICENTER,MEAN_ANOMALY,EPHEMERIS_TYPE,CLASSIFICATION_TYPE,NORAD_CAT_ID,ELEMENT_SET_NO,REV_AT_EPOCH,BSTAR,MEAN_MOTION_DOT,MEAN_MOTION_DDOT
ONEWEB-0531,2022-138AK,2026-06-16T20:30:07.282080,13.20771586,.0002826,87.9192,274.5015,103.8403,256.3045,0,U,54146,999,17926,.19435E-3,.92E-6,0
ONEWEB-0535,2022-138AL,2026-06-17T01:54:10.993824,13.19725609,.0002179,87.9177,304.9795,94.7180,265.4201,0,U,54147,999,17682,.14828E-3,.72E-6,0
ONEWEB-0536,2022-138AM,2026-06-16T20:10:42.864096,13.20770910,.0002963,87.9182,274.5265,107.3705,252.7753,0,U,54148,999,17925,-.60336E-4,-.12E-6,0
ONEWEB-0527,2022-166A,2026-06-16T22:47:19.904352,13.21823017,.0001993,87.9253,244.0447,100.3862,259.7497,0,U,54642,999,17150,-.41071E-4,-.4E-7,0
ONEWEB-0528,2022-166B,2026-06-16T22:48:32.608224,13.21824112,.0001865,87.9255,244.0468,103.9010,256.2331,0,U,54643,999,17151,.21663E-3,.102E-5,0
ONEWEB-0539,2022-166C,2026-06-16T21:54:03.879360,13.21827412,.0001956,87.9259,244.0258,92.7751,267.3607,0,U,54644,999,17150,.17009E-3,.83E-6,0
ONEWEB-0540,2022-166D,2026-06-16T22:03:56.871072,13.21826526,.0002041,87.9254,244.0549,95.3667,264.7700,0,U,54645,999,17149,.58592E-4,.37E-6,0
ONEWEB-0542,2022-166E,2026-06-16T22:08:35.059200,13.21827664,.0002003,87.9262,244.0225,90.3256,269.8107,0,U,54646,999,17150,.21265E-3,.101E-5,0
ONEWEB-0545,2022-166F,2026-06-16T23:06:44.591040,13.21810512,.000198,87.9254,244.0266,83.7772,276.3587,0,U,54647,999,17147,-.48436E-2,-.1987E-4,0
ONEWEB-0580,2022-166G,2026-06-16T22:30:22.697280,13.21827402,.0002268,87.9255,244.0312,89.1314,271.0080,0,U,54648,999,17151,.80064E-4,.46E-6,0
ONEWEB-0582,2022-166H,2026-06-16T18:03:57.038400,13.21826448,.000217,87.9255,244.0605,87.1116,273.0266,0,U,54649,999,17146,-.19608E-3,-.68E-6,0
ONEWEB-0583,2022-166J,2026-06-16T21:58:53.729760,13.21827896,.0002064,87.9252,244.0514,95.4949,264.6420,0,U,54650,999,17149,.12834E-3,.66E-6,0
ONEWEB-0584,2022-166K,2026-06-16T22:27:58.156128,13.21825166,.0002126,87.9251,244.0329,96.1493,263.9883,0,U,54651,999,17148,.19084E-3,.92E-6,0
ONEWEB-0585,2022-166L,2026-06-16T23:01:53.592384,13.21826684,.0001994,87.9256,244.0154,103.5181,256.6175,0,U,54652,999,17149,.14257E-3,.72E-6,0
ONEWEB-0586,2022-166M,2026-06-16T23:21:15.147072,13.21823989,.0001982,87.9254,244.0381,93.6467,266.4893,0,U,54653,999,17149,-.11553E-3,-.35E-6,0
ONEWEB-0587,2022-166N,2026-06-16T21:46:46.863840,13.21825241,.0002033,87.9264,244.0245,109.0554,251.0800,0,U,54654,999,17164,.13966E-3,.71E-6,0
ONEWEB-0589,2022-166P,2026-06-16T23:16:24.596832,13.21823890,.0002397,87.9251,244.0245,78.3912,281.7491,0,U,54655,999,17151,-.12699E-3,-.39E-6,0
ONEWEB-0590,2022-166Q,2026-06-16T22:03:33.183648,13.21826918,.000251,87.9263,244.0247,100.1616,259.9801,0,U,54656,999,17149,.18271E-3,.88E-6,0
ONEWEB-0591,2022-166R,2026-06-16T22:20:43.164096,13.21826760,.000212,87.9253,244.0372,98.5884,261.5491,0,U,54657,999,17152,.1887E-3,.91E-6,0
ONEWEB-0592,2022-166S,2026-06-16T22:25:32.610144,13.21827645,.0002057,87.9263,244.0146,98.9026,261.2341,0,U,54658,999,17140,.19799E-3,.95E-6,0
ONEWEB-0593,2022-166T,2026-06-16T22:57:01.398816,13.21824541,.0001928,87.9255,244.0219,95.2132,264.9222,0,U,54659,999,17151,-.92602E-4,-.25E-6,0
ONEWEB-0594,2022-166U,2026-06-16T23:26:06.811008,13.21827419,.0001909,87.9251,244.0343,102.9000,257.2347,0,U,54660,999,17153,-.75048E-4,-.18E-6,0
ONEWEB-0595,2022-166V,2026-06-16T22:52:11.028288,13.21827363,.0002125,87.9261,244.0195,105.6904,254.4464,0,U,54661,999,17150,.77452E-4,.45E-6,0
ONEWEB-0596,2022-166W,2026-06-16T22:15:52.060032,13.21826350,.0002099,87.9257,244.0361,101.7184,258.4185,0,U,54662,999,17150,.63066E-4,.39E-6,0
ONEWEB-0597,2022-166X,2026-06-16T21:49:13.227168,13.21827215,.0002026,87.9253,244.0429,95.4477,264.6888,0,U,54663,999,17150,-.60484E-4,-.12E-6,0
ONEWEB-0600,2022-166Y,2026-06-16T17:44:33.190656,13.21824341,.0001809,87.9253,244.0680,96.3295,263.8045,0,U,54664,999,17145,-.93248E-4,-.25E-6,0
ONEWEB-0601,2022-166Z,2026-06-16T22:59:27.541824,13.21825563,.0002084,87.9252,244.0406,91.9422,268.1951,0,U,54665,999,17167,.31513E-4,.26E-6,0
ONEWEB-0602,2022-166AA,2026-06-16T22:09:48.123360,13.21826464,.000178,87.9252,244.0535,95.4277,264.7060,0,U,54666,999,17151,.19238E-3,.92E-6,0
ONEWEB-0603,2022-166AB,2026-06-16T22:18:17.682912,13.21825498,.0002,87.9263,244.0093,96.1209,264.0153,0,U,54667,999,17144,-.1533E-3,-.5E-6,0
ONEWEB-0604,2022-166AC,2026-06-16T22:01:18.944832,13.21828056,.0002031,87.9263,244.0271,101.4282,258.7080,0,U,54668,999,17140,.35258E-5,.14E-6,0
ONEWEB-0605,2022-166AD,2026-06-16T21:51:38.952864,13.21826810,.0002531,87.9253,244.0419,89.5541,270.5883,0,U,54669,999,17147,.18006E-3,.87E-6,0
