ONEWEB-0531             
1 54146U 22138AK  26167.85425095  .00000092  00000+0  19435-3 0  9991
2 54146  87.9192 274.5015 0002826 103.8403 256.3045 13.20771586179269
ONEWEB-0535             
1 54147U 22138AL  26168.07929391  .00000072  00000+0  14828-3 0  9994
2 54147  87.9177 304.9795 0002179  94.7180 265.4201 13.19725609176824
ONEWEB-0536             
1 54148U 22138AM  26167.84077389 -.00000012  00000+0 -60336-4 0  9992
2 54148  87.9182 274.5265 0002963 107.3705 252.7753 13.20770910179258
ONEWEB-0527             
1 54642U 22166A   26167.94953593 -.00000004  00000+0 -41071-4 0  9999
2 54642  87.9253 244.0447 0001993 100.3862 259.7497 13.21823017171509
ONEWEB-0528             
1 54643U 22166B   26167.95037741  .00000102  00000+0  21663-3 0  9990
2 54643  87.9255 244.0468 0001865 103.9010 256.2331 13.21824112171514
ONEWEB-0539             
1 54644U 22166C   26167.91254490  .00000083  00000+0  17009-3 0  9996
2 54644  87.9259 244.0258 0001956  92.7751 267.3607 13.21827412171508
ONEWEB-0540             
1 54645U 22166D   26167.91940823  .00000037  00000+0  58592-4 0  9991
2 54645  87.9254 244.0549 0002041  95.3667 264.7700 13.21826526171496
ONEWEB-0542             
1 54646U 22166E   26167.92262800  .00000101  00000+0  21265-3 0  9993
2 54646  87.9262 244.0225 0002003  90.3256 269.8107 13.21827664171507
ONEWEB-0545             
1 54647U 22166F   26167.96301610 -.00001987  00000+0 -48436-2 0  9994
2 54647  87.9254 244.0266 0001980  83.7772 276.3587 13.21810512171471
ONEWEB-0580             
1 54648U 22166G   26167.93776270  .00000046  00000+0  80064-4 0  9998
2 54648  87.9255 244.0312 0002268  89.1314 271.0080 13.21827402171518
ONEWEB-0582             
1 54649U 22166H   26167.75274350 -.00000068  00000+0 -19608-3 0  9992
2 54649  87.9255 244.0605 0002170  87.1116 273.0266 13.21826448171465
ONEWEB-0583             
1 54650U 22166J   26167.91589965  .00000066  00000+0  12834-3 0  9993
2 54650  87.9252 244.0514 0002064  95.4949 264.6420 13.21827896171490
ONEWEB-0584             
1 54651U 22166K   26167.93608977  .00000092  00000+0  19084-3 0  9994
2 54651  87.9251 244.0329 0002126  96.1493 263.9883 13.21825166171487
ONEWEB-0585             
1 54652U 22166L   26167.95964806  .00000072  00000+0  14257-3 0  9998
2 54652  87.9256 244.0154 0001994 103.5181 256.6175 13.21826684171498
ONEWEB-0586             
1 54653U 22166M   26167.97309198 -.00000035  00000+0 -11553-3 0  9995
2 54653  87.9254 244.0381 0001982  93.6467 266.4893 13.21823989171493
ONEWEB-0587             
1 54654U 22166N   26167.90748685  .00000071  00000+0  13966-3 0  9995
2 54654  87.9264 244.0245 0002033 109.0554 251.0800 13.21825241171649
ONEWEB-0589             
1 54655U 22166P   26167.96972913 -.00000039  00000+0 -12699-3 0  9993
2 54655  87.9251 244.0245 0002397  78.3912 281.7491 13.21823890171515
ONEWEB-0590             
1 54656U 22166Q   26167.91913407  .00000088  00000+0  18271-3 0  9996
2 54656  87.9263 244.0247 0002510 100.1616 259.9801 13.21826918171496
ONEWEB-0591             
1 54657U 22166R   26167.93105514  .00000091  00000+0  18870-3 0  9990
2 54657  87.9253 244.0372 0002120  98.5884 261.5491 13.21826760171522
ONEWEB-0592             
1 54658U 22166S   26167.93440521  .00000095  00000+0  19799-3 0  9996
2 54658  87.9263 244.0146 0002057  98.9026 261.2341 13.21827645171405
ONEWEB-0593             
1 54659U 22166T   26167.95626619 -.00000025  00000+0 -92602-4 0  9993
2 54659  87.9255 244.0219 0001928  95.2132 264.9222 13.21824541171514
ONEWEB-0594             
1 54660U 22166U   26167.97646772 -.00000018  00000+0 -75048-4 0  9996
2 54660  87.9251 244.0343 0001909 102.9000 257.2347 13.21827419171531
ONEWEB-0595             
1 54661U 22166V   26167.95290542  .00000045  00000+0  77452-4 0  9994
2 54661  87.9261 244.0195 0002125 105.6904 254.4464 13.21827363171506
ONEWEB-0596             
1 54662U 22166W   26167.92768588  .00000039  00000+0  63066-4 0  9991
2 54662  87.9257 244.0361 0002099 101.7184 258.4185 13.21826350171503
ONEWEB-0597             
1 54663U 22166X   26167.90918087 -.00000012  00000+0 -60484-4 0  9995
2 54663  87.9253 244.0429 0002026  95.4477 264.6888 13.21827215171509
ONEWEB-0600             
1 54664U 22166Y   26167.73927304 -.00000025  00000+0 -93248-4 0  9997
2 54664  87.9253 244.0680 0001809  96.3295 263.8045 13.21824341171452
ONEWEB-0601             
1 54665U 22166Z   26167.95795766  .00000026  00000+0  31513-4 0  9993
2 54665  87.9252 244.0406 0002084  91.9422 268.1951 13.21825563171672
ONEWEB-0602             
1 54666U 22166AA  26167.92347365  .00000092  00000+0  19238-3 0  9991
2 54666  87.9252 244.0535 0001780  95.4277 264.7060 13.21826464171512
ONEWEB-0603             
1 54667U 22166AB  26167.92937133 -.00000050  00000+0 -15330-3 0  9995
2 54667  87.9263 244.0093 0002000  96.1209 264.0153 13.21825498171447
ONEWEB-0604             
1 54668U 22166AC  26167.91758038  .00000014  00000+0  35258-5 0  9991
2 54668  87.9263 244.0271 0002031 101.4282 258.7080 13.21828056171409
ONEWEB-0605             
1 54669U 22166AD  26167.91086751  .00000087  00000+0  18006-3 0  9998
2 54669  87.9253 244.0419 0002531  89.5541 270.5883 13.21826810171478
